{
  "type": "FeatureCollection",
  "features": [
    {
      "type": "Feature",
      "properties": {
        "norad_id": 24876,
        "name": "GPS BIIR-2  (PRN 13)",
        "group": "gnss",
        "lat": -5.852904059156486,
        "lon": 101.66805768284233,
        "alt_km": 20068.508502023284,
        "timestamp": "2025-12-18T04:58:34.819423+00:00",
        "meta_object_name": "GPS BIIR-2  (PRN 13)",
        "meta_object_id": "1997-035A",
        "meta_epoch": "2025-12-17T17:14:35.683584",
        "meta_mean_motion": 2.00563712,
        "meta_eccentricity": 0.00967872,
        "meta_inclination": 55.8976,
        "meta_ra_of_asc_node": 105.6742,
        "meta_arg_of_pericenter": 56.9828,
        "meta_mean_anomaly": 303.9131,
        "meta_ephemeris_type": 0,
        "meta_classification_type": "U",
        "meta_norad_cat_id": 24876,
        "meta_element_set_no": 999,
        "meta_rev_at_epoch": 20831,
        "meta_bstar": 0,
        "meta_mean_motion_dot": -2.3e-07,
        "meta_mean_motion_ddot": 0,
        "tle_line1": "1 24876U 97035A   25351.71846856 -.00000023  00000+0  00000+0 0  9996",
        "tle_line2": "2 24876  55.8976 105.6742 0096787  56.9828 303.9131  2.00563712208319"
      },
      "geometry": {
        "type": "Point",
        "coordinates": [
          101.66805768284233,
          -5.852904059156486
        ]
      }
    },
    {
      "type": "Feature",
      "properties": {
        "norad_id": 26360,
        "name": "GPS BIIR-4  (PRN 20)",
        "group": "gnss",
        "lat": 54.813309696470526,
        "lon": 109.14527861141119,
        "alt_km": 20270.603345081887,
        "timestamp": "2025-12-18T04:58:34.819465+00:00",
        "meta_object_name": "GPS BIIR-4  (PRN 20)",
        "meta_object_id": "2000-025A",
        "meta_epoch": "2025-12-17T20:03:48.692736",
        "meta_mean_motion": 2.005674,
        "meta_eccentricity": 0.00388914,
        "meta_inclination": 55.0482,
        "meta_ra_of_asc_node": 26.6317,
        "meta_arg_of_pericenter": 242.4745,
        "meta_mean_anomaly": 295.2802,
        "meta_ephemeris_type": 0,
        "meta_classification_type": "U",
        "meta_norad_cat_id": 26360,
        "meta_element_set_no": 999,
        "meta_rev_at_epoch": 18763,
        "meta_bstar": 0,
        "meta_mean_motion_dot": -7.7e-07,
        "meta_mean_motion_ddot": 0,
        "tle_line1": "1 26360U 00025A   25351.83598024 -.00000077  00000+0  00000+0 0  9992",
        "tle_line2": "2 26360  55.0482  26.6317 0038891 242.4745 295.2802  2.00567400187632"
      },
      "geometry": {
        "type": "Point",
        "coordinates": [
          109.14527861141119,
          54.813309696470526
        ]
      }
    },
    {
      "type": "Feature",
      "properties": {
        "norad_id": 26407,
        "name": "GPS BIIR-5  (PRN 22)",
        "group": "gnss",
        "lat": -52.182635602462916,
        "lon": 157.42201910644687,
        "alt_km": 19868.07373848131,
        "timestamp": "2025-12-18T04:58:34.819484+00:00",
        "meta_object_name": "GPS BIIR-5  (PRN 22)",
        "meta_object_id": "2000-040A",
        "meta_epoch": "2025-12-17T13:07:08.215968",
        "meta_mean_motion": 2.00568099,
        "meta_eccentricity": 0.0125756,
        "meta_inclination": 54.8897,
        "meta_ra_of_asc_node": 222.3778,
        "meta_arg_of_pericenter": 301.8897,
        "meta_mean_anomaly": 226.5653,
        "meta_ephemeris_type": 0,
        "meta_classification_type": "U",
        "meta_norad_cat_id": 26407,
        "meta_element_set_no": 999,
        "meta_rev_at_epoch": 18630,
        "meta_bstar": 0,
        "meta_mean_motion_dot": 7.1e-07,
        "meta_mean_motion_ddot": 0,
        "tle_line1": "1 26407U 00040A   25351.54662287  .00000071  00000+0  00000+0 0  9995",
        "tle_line2": "2 26407  54.8897 222.3778 0125756 301.8897 226.5653  2.00568099186301"
      },
      "geometry": {
        "type": "Point",
        "coordinates": [
          157.42201910644687,
          -52.182635602462916
        ]
      }
    },
    {
      "type": "Feature",
      "properties": {
        "norad_id": 27663,
        "name": "GPS BIIR-8  (PRN 16)",
        "group": "gnss",
        "lat": 46.091437660776315,
        "lon": -90.98056359574781,
        "alt_km": 19789.1028643869,
        "timestamp": "2025-12-18T04:58:34.819499+00:00",
        "meta_object_name": "GPS BIIR-8  (PRN 16)",
        "meta_object_id": "2003-005A",
        "meta_epoch": "2025-12-17T15:19:29.390304",
        "meta_mean_motion": 2.00570709,
        "meta_eccentricity": 0.01476333,
        "meta_inclination": 54.9222,
        "meta_ra_of_asc_node": 222.1834,
        "meta_arg_of_pericenter": 51.8674,
        "meta_mean_anomaly": 318.886,
        "meta_ephemeris_type": 0,
        "meta_classification_type": "U",
        "meta_norad_cat_id": 27663,
        "meta_element_set_no": 999,
        "meta_rev_at_epoch": 16767,
        "meta_bstar": 0,
        "meta_mean_motion_dot": 7.2e-07,
        "meta_mean_motion_ddot": 0,
        "tle_line1": "1 27663U 03005A   25351.63853461  .00000072  00000+0  00000+0 0  9991",
        "tle_line2": "2 27663  54.9222 222.1834 0147633  51.8674 318.8860  2.00570709167678"
      },
      "geometry": {
        "type": "Point",
        "coordinates": [
          -90.98056359574781,
          46.091437660776315
        ]
      }
    },
    {
      "type": "Feature",
      "properties": {
        "norad_id": 28190,
        "name": "GPS BIIR-11 (PRN 19)",
        "group": "gnss",
        "lat": -32.5313042497843,
        "lon": 129.5057597126189,
        "alt_km": 20012.35785490766,
        "timestamp": "2025-12-18T04:58:34.819512+00:00",
        "meta_object_name": "GPS BIIR-11 (PRN 19)",
        "meta_object_id": "2004-009A",
        "meta_epoch": "2025-12-16T15:39:18.319104",
        "meta_mean_motion": 2.00560719,
        "meta_eccentricity": 0.01083863,
        "meta_inclination": 54.9821,
        "meta_ra_of_asc_node": 283.0612,
        "meta_arg_of_pericenter": 167.7046,
        "meta_mean_anomaly": 9.4896,
        "meta_ephemeris_type": 0,
        "meta_classification_type": "U",
        "meta_norad_cat_id": 28190,
        "meta_element_set_no": 999,
        "meta_rev_at_epoch": 15928,
        "meta_bstar": 0,
        "meta_mean_motion_dot": -6.5e-07,
        "meta_mean_motion_ddot": 0,
        "tle_line1": "1 28190U 04009A   25350.65229536 -.00000065  00000+0  00000+0 0  9996",
        "tle_line2": "2 28190  54.9821 283.0612 0108386 167.7046   9.4896  2.00560719159281"
      },
      "geometry": {
        "type": "Point",
        "coordinates": [
          129.5057597126189,
          -32.5313042497843
        ]
      }
    },
    {
      "type": "Feature",
      "properties": {
        "norad_id": 28474,
        "name": "GPS BIIR-13 (PRN 02)",
        "group": "gnss",
        "lat": -54.14960815283275,
        "lon": -101.77084436758562,
        "alt_km": 19792.13502530255,
        "timestamp": "2025-12-18T04:58:34.819525+00:00",
        "meta_object_name": "GPS BIIR-13 (PRN 02)",
        "meta_object_id": "2004-045A",
        "meta_epoch": "2025-12-17T13:48:23.319360",
        "meta_mean_motion": 2.00569852,
        "meta_eccentricity": 0.01708441,
        "meta_inclination": 55.2383,
        "meta_ra_of_asc_node": 332.2112,
        "meta_arg_of_pericenter": 309.4586,
        "meta_mean_anomaly": 234.4084,
        "meta_ephemeris_type": 0,
        "meta_classification_type": "U",
        "meta_norad_cat_id": 28474,
        "meta_element_set_no": 999,
        "meta_rev_at_epoch": 15478,
        "meta_bstar": 0,
        "meta_mean_motion_dot": -8.8e-07,
        "meta_mean_motion_ddot": 0,
        "tle_line1": "1 28474U 04045A   25351.57526990 -.00000088  00000+0  00000+0 0  9992",
        "tle_line2": "2 28474  55.2383 332.2112 0170844 309.4586 234.4084  2.00569852154783"
      },
      "geometry": {
        "type": "Point",
        "coordinates": [
          -101.77084436758562,
          -54.14960815283275
        ]
      }
    },
    {
      "type": "Feature",
      "properties": {
        "norad_id": 28874,
        "name": "GPS BIIRM-1 (PRN 17)",
        "group": "gnss",
        "lat": -44.11215285268508,
        "lon": 143.1204511955193,
        "alt_km": 19985.810250337854,
        "timestamp": "2025-12-18T04:58:34.819538+00:00",
        "meta_object_name": "GPS BIIRM-1 (PRN 17)",
        "meta_object_id": "2005-038A",
        "meta_epoch": "2025-12-17T21:14:50.487648",
        "meta_mean_motion": 2.00578159,
        "meta_eccentricity": 0.01314846,
        "meta_inclination": 55.0273,
        "meta_ra_of_asc_node": 280.4937,
        "meta_arg_of_pericenter": 293.6629,
        "meta_mean_anomaly": 73.133,
        "meta_ephemeris_type": 0,
        "meta_classification_type": "U",
        "meta_norad_cat_id": 28874,
        "meta_element_set_no": 999,
        "meta_rev_at_epoch": 14820,
        "meta_bstar": 0,
        "meta_mean_motion_dot": -4.9e-07,
        "meta_mean_motion_ddot": 0,
        "tle_line1": "1 28874U 05038A   25351.88530657 -.00000049  00000+0  00000+0 0  9995",
        "tle_line2": "2 28874  55.0273 280.4937 0131484 293.6629  73.1330  2.00578159148203"
      },
      "geometry": {
        "type": "Point",
        "coordinates": [
          143.1204511955193,
          -44.11215285268508
        ]
      }
    }
  ]
}